OBJECT B                
1 51825U 22019B   24111.85493155  .00018307  00000+0  84319-3 0  9990
2 51825  97.4328 183.9532 0016300  83.4933 276.8157 15.20227524118519
